LEMUR-1                 
1 40044U 14033AL  26192.20957418  .00000946  00000+0  11416-3 0  9993
2 40044  97.7902 341.4854 0048123   1.0839 359.0472 14.85329733649033
LEMUR-2-GREENBERG       
1 42837U 17042N   26190.49536315  .00011532  00000+0  37497-3 0  9996
2 42837  97.3831  11.0293 0007135 283.6729  76.3718 15.32031511491802
LEMUR-2-ANDIS           
1 42838U 17042P   26191.97066194  .00013461  00000+0  38815-3 0  9992
2 42838  97.3678  12.7686 0007114 276.1395  83.9038 15.35809937492100
LEMUR-2-MONSON          
1 42839U 17042Q   26191.46928106  .00009600  00000+0  34677-3 0  9999
2 42839  97.4089  11.9359 0005156 266.7916  93.2733 15.28674858491721
LEMUR-2-FURIAUS         
1 42840U 17042R   26191.74629140  .00012077  00000+0  40490-3 0  9990
2 42840  97.3778  10.1778 0006360 347.2297  12.8782 15.31036825491819
LEMUR-2-PETERG          
1 42841U 17042S   26192.16466572  .00012435  00000+0  36918-3 0  9994
2 42841  97.3994  17.2517 0003025 239.0880 121.0066 15.34930932492117
LEMUR-2-DEMBITZ         
1 42842U 17042T   26191.43918648  .00012615  00000+0  42317-3 0  9990
2 42842  97.3830  12.9130 0005051 296.1188  63.9533 15.31014043491908
LEMUR-2-ZACHARY         
1 42845U 17042W   26191.99177898  .00031231  00000+0  51140-3 0  9997
2 42845  97.3583  24.1704 0002407 268.6387  91.4590 15.52437029492899
LEMUR-2-AMANDA-SVANTE   
1 48269U 21034B   26192.15080262  .00020774  00000+0  59796-3 0  9991
2 48269  97.5761 271.0917 0004319 152.1074 208.0401 15.35790464284733
LEMUR-2-SPECIAL-K       
1 48273U 21034F   26190.48357970  .00187516  00000+0  13703-2 0  9998
2 48273  97.5638 279.0810 0006094 220.1944 139.8869 15.72652165285180
LEMUR-2-EMBRIONOVIS     
1 56970U 23084AQ  26191.36601596  .00010396  00000+0  27880-3 0  9995
2 56970  97.6309 336.4682 0007916 225.0673 134.9930 15.38146742171248
LEMUR-2-DEVERILL-M-T    
1 57391U 23100F   26191.55573213  .00019034  00000+0  46465-3 0  9995
2 57391  99.4467 237.0829 0004687 316.3401  43.7467 15.40939076164848
LEMUR-2-BASS            
1 58259U 23174D   26192.19746509  .00011552  00000+0  25589-3 0  9992
2 58259  97.3848 277.2573 0007846  90.0591 270.1556 15.43904850149067
LEMUR-2-JK0903EM1407    
1 58336U 23174CJ  26192.18846131  .00017977  00000+0  29037-3 0  9998
2 58336  97.3920 283.3557 0003998  46.6877 313.4709 15.52923968149457
LEMUR-2-MJR092620       
1 58340U 23174CN  26192.18247251  .00012570  00000+0  26143-3 0  9990
2 58340  97.3976 282.6673 0005662  43.5679 316.6016 15.45764111149350
LEMUR-2-NIMBUS2000      
1 58899U 24022A   26192.04789441  .00014151  00000+0  34460-3 0  9997
2 58899  97.4093  42.3622 0009170  42.4609 317.7345 15.40997999135948
